1 11416U 79057A   93088.98462661  .00000349      0+0  14600-3 0 66308
2 11416  98.6220  78.7079 0012281  25.3330 334.8451 14.28601799715031
1 11416U 79057A   93089.96516304  .00000344  00000-0  14452-3 0  6643
2 11416  98.6221  79.6772 0012240  22.8730 337.2997 14.28602383715170
1 11416U 79057A   93089.96516304  .00000344      0+0  14452-3 0 66402
2 11416  98.6221  79.6772 0012240  22.8730 337.2997 14.28602383715170
1 11416U 79057A   93089.96516336  .00000323  00000-0  14452-3 0  6645
2 11416  98.6221  79.6772 0012240  22.8730 337.2997 14.28602383715170
1 11416U 79057A   93091.01573711  .00000347  00000-0  14609-3 0  6644
2 11416  98.6222  80.7157 0012243  19.4682 340.6984 14.28603237715322
1 11416U 79057A   93091.01573711  .00000347      0+0  14609-3 0 66403
2 11416  98.6222  80.7157 0012243  19.4682 340.6984 14.28603237715322
1 11416U 79057A   93091.99627207  .00000341  00000-0  14316-3 0  6640
2 11416  98.6223  81.6849 0012129  17.3126 342.8467 14.28603731715468
1 11416U 79057A   93091.99627207  .00000341      0+0  14316-3 0 66409
2 11416  98.6223  81.6849 0012129  17.3126 342.8467 14.28603731715468
1 11416U 79057A   93093.39703599  .00000342  00000-0  14347-3 0  6640
2 11416  98.6224  83.0692 0012093  13.4003 346.7497 14.28604741715662
1 11416U 79057A   93093.39703599  .00000342      0+0  14347-3 0 66409
2 11416  98.6224  83.0692 0012093  13.4003 346.7497 14.28604741715662
1 11416U 79057A   93093.95734162  .00000341  00000-0  14317-3 0  6648
2 11416  98.6224  83.6230 0012081  11.8937 348.2529 14.28605107715740
1 11416U 79057A   93093.95734162  .00000341      0+0  14317-3 0 66407
2 11416  98.6224  83.6230 0012081  11.8937 348.2529 14.28605107715740
1 11416U 79057A   93095.00791316  .00000339  00000-0  14223-3 0  6643
2 11416  98.6224  84.6609 0012042   8.8312 351.3079 14.28605816715899
1 11416U 79057A   93095.00791316  .00000339      0+0  14223-3 0 66402
2 11416  98.6224  84.6609 0012042   8.8312 351.3079 14.28605816715899
1 11416U 79057A   93095.98844680  .00000333  00000-0  14021-3 0  6643
2 11416  98.6225  85.6303 0011974   6.7780 353.3561 14.28606315716031
1 11416U 79057A   93095.98844680  .00000333      0+0  14021-3 0 66402
2 11416  98.6225  85.6303 0011974   6.7780 353.3561 14.28606315716031
1 11416U 79057A   93095.98844711  .00000312  00000-0  14021-3 0  6656
2 11416  98.6225  85.6303 0011974   6.7780 353.3561 14.28606314716030
1 11416U 79057A   93096.96897962  .00000335  00000-0  14106-3 0  6650
2 11416  98.6228  86.5999 0011936   4.1474 355.9806 14.28607013716176
1 11416U 79057A   93096.96897962  .00000335      0+0  14106-3 0 66509
2 11416  98.6228  86.5999 0011936   4.1474 355.9806 14.28607013716176
1 11416U 79057A   93097.94951246  .00000340  00000-0  14306-3 0  6653
2 11416  98.6228  87.5691 0011922   1.4562 358.6656 14.28607813716316
1 11416U 79057A   93097.94951246  .00000340      0+0  14306-3 0 66502
2 11416  98.6228  87.5691 0011922   1.4562 358.6656 14.28607813716316
1 11416U 79057A   93099.00008189  .00000318  00000-0  14240-3 0  6664
2 11416  98.6229  88.6077 0011851 358.4494   1.6649 14.28608504716468
1 11416U 79057A   93099.00008190  .00000339  00000-0  14240-3 0  6669
2 11416  98.6229  88.6076 0011851 358.4493   1.6649 14.28608505716467
1 11416U 79057A   93099.00008190  .00000339      0+0  14240-3 0 66608
2 11416  98.6229  88.6076 0011851 358.4493   1.6649 14.28608505716467
1 11416U 79057A   93099.98061288  .00000345  00000-0  14490-3 0  6667
2 11416  98.6230  89.5773 0011922 355.3139   4.7945 14.28609321716601
1 11416U 79057A   93099.98061288  .00000345      0+0  14490-3 0 66606
2 11416  98.6230  89.5773 0011922 355.3139   4.7945 14.28609321716601